TEVEL2-3                
1 63218U 25052J   26068.64540225  .00020365  00000+0  69446-3 0  9991
2 63218  97.3994 324.7775 0004761 105.7353 254.4413 15.30377031 54855
STARLINK-35244          
1 65829U 25221G   26068.78771409  .00016360  00000+0  56328-3 0  9999
2 65829  53.1596  90.3947 0001577  94.6614 265.4567 15.30198605 26026
